OBJECT_NAME,OBJECT_ID,EPOCH,MEAN_MOTION,ECCENTRICITY,INCLINATION,RA_OF_ASC_NODE,ARG_OF_PERICENTER,MEAN_ANOMALY,EPHEMERIS_TYPE,CLASSIFICATION_TYPE,NORAD_CAT_ID,ELEMENT_SET_NO,REV_AT_EPOCH,BSTAR,MEAN_MOTION_DOT,MEAN_MOTION_DDOT
STARLINK-37573,2026-126C,2026-06-19T14:10:48.629568,15.75222280,.00013579,97.2833,30.6772,97.1860,262.9560,0,U,69422,999,312,.76873107E-3,.116267E-2,0
STARLINK-37820,2026-126D,2026-06-19T16:40:55.692192,15.80002803,.0001221,97.2820,30.8430,102.2175,257.9229,0,U,69423,999,314,.94627E-3,.178154E-2,0
STARLINK-37822,2026-126E,2026-06-19T13:38:15.392544,15.80038857,.00028493,97.2823,30.7097,122.1940,237.9604,0,U,69424,999,312,.10197243E-2,.192654E-2,0
STARLINK-37836,2026-126F,2026-06-19T13:37:59.927808,15.80065774,.00008444,97.2822,30.7098,118.5259,241.6094,0,U,69425,999,312,.15146106E-2,.28979E-2,0
STARLINK-37850,2026-126G,2026-06-19T19:42:33.650784,15.79970100,.0001243,97.2822,30.9780,77.4508,282.6899,0,U,69426,999,321,.76879E-3,.143929E-2,0
STARLINK-37823,2026-126H,2026-06-19T13:37:28.638048,15.80019645,.00014973,97.2822,30.7104,120.3231,239.8185,0,U,69427,999,312,.11167786E-2,.211252E-2,0
STARLINK-37834,2026-126J,2026-06-19T13:45:23.869152,15.75235776,.00021782,97.2831,30.7029,115.5065,244.6426,0,U,69428,999,312,.60679799E-3,.91541E-3,0
STARLINK-37857,2026-126K,2026-06-19T13:36:57.670560,15.80031812,.0000942,97.2823,30.7109,101.8615,258.2759,0,U,69429,999,312,.10553617E-2,.199462E-2,0
STARLINK-37866,2026-126L,2026-06-19T13:36:57.268800,15.80416095,.00016747,97.2827,30.7101,89.0973,271.0487,0,U,69430,999,317,.97647287E-3,.18753E-2,0
STARLINK-37555,2026-126M,2026-06-19T16:38:50.985888,15.80001032,.0001177,97.2821,30.8452,104.8899,255.2499,0,U,69431,999,319,.88388E-3,.166153E-2,0
STARLINK-37870,2026-126N,2026-06-19T13:36:10.863360,15.79998585,.00014138,97.2823,30.7120,117.2678,242.8734,0,U,69432,999,312,.75265094E-3,.141039E-2,0
STARLINK-37872,2026-126P,2026-06-19T13:35:55.189536,15.80017070,.00026428,97.2824,30.7123,123.8485,236.3035,0,U,69433,999,312,.95511045E-3,.179992E-2,0
STARLINK-37815,2026-126Q,2026-06-19T13:56:34.886976,15.75247566,.00013151,97.2831,30.6914,110.5631,249.5775,0,U,69434,999,312,.12151675E-2,.185574E-2,0
STARLINK-37801,2026-126R,2026-06-19T13:36:30.422592,15.77587389,.00029731,97.2825,30.7119,185.9362,174.1870,0,U,69435,999,317,-.16229191E-3,-.26943E-3,0
STARLINK-37800,2026-126S,2026-06-19T18:13:44.618016,15.75206694,.0000576,97.2829,30.9085,91.4808,268.6523,0,U,69436,999,315,.11042E-2,.167964E-2,0
STARLINK-37792,2026-126T,2026-06-19T13:34:53.005728,15.80027299,.00008586,97.2826,30.7129,120.5945,239.5407,0,U,69437,999,317,.10552271E-2,.199395E-2,0
STARLINK-37783,2026-126U,2026-06-19T13:34:21.653760,15.80013597,.0002059,97.2824,30.7132,116.3495,243.7984,0,U,69438,999,317,.89390866E-3,.168184E-2,0
STARLINK-37771,2026-126V,2026-06-19T18:37:06.942720,15.75247610,.0000829,97.2827,30.8848,80.5886,279.5473,0,U,69439,999,315,.11201E-2,.170745E-2,0
STARLINK-37747,2026-126W,2026-06-19T16:37:01.860096,15.79977017,.0001774,97.2824,30.8468,94.1623,265.9847,0,U,69440,999,314,.46136E-3,.85768E-3,0
STARLINK-37629,2026-127A,2026-06-19T17:13:04.286208,15.77505760,.0002189,53.1586,249.8431,25.8300,334.2830,0,U,69443,999,180,-.49777E-2,-.771917E-2,0
STARLINK-37509,2026-127B,2026-06-19T12:35:34.759968,15.80795718,.00014567,53.1584,250.7726,350.9906,9.1090,0,U,69444,999,177,-.19053067E-3,-.38006E-3,0
STARLINK-37641,2026-127C,2026-06-19T17:06:34.453728,15.80928039,.0001342,53.1587,249.8122,61.0868,299.0289,0,U,69445,999,180,.63284E-3,.126367E-2,0
STARLINK-37522,2026-127D,2026-06-19T17:06:24.878016,15.77172391,.0001394,53.1586,249.8117,45.9923,314.1213,0,U,69446,999,180,-.50869E-2,-.776457E-2,0
STARLINK-37640,2026-127E,2026-06-19T17:02:34.481184,15.80958744,.0000934,53.1587,249.7937,75.5838,284.5288,0,U,69447,999,180,.90984E-3,.183464E-2,0
STARLINK-37572,2026-127F,2026-06-19T16:58:23.269728,15.80955651,.0001012,53.1585,249.7728,97.4392,262.6746,0,U,69448,999,180,.90725E-3,.182901E-2,0
STARLINK-37643,2026-127G,2026-06-19T12:26:04.772256,15.76780270,.00024305,53.1589,250.7251,123.6138,236.5115,0,U,69449,999,177,-.35631274E-2,-.549176E-2,0
STARLINK-37601,2026-127H,2026-06-19T12:25:17.071680,15.76924630,.00167109,53.1583,250.7254,2.6152,357.4953,0,U,69450,999,177,.35397219E-2,.633073E-2,0
STARLINK-37578,2026-127J,2026-06-19T16:53:08.472192,15.80961718,.0001037,53.1589,249.7490,51.5406,308.5710,0,U,69451,999,180,.91986E-3,.185562E-2,0
STARLINK-37577,2026-127K,2026-06-19T16:51:18.163584,15.80931818,.0001507,53.1594,249.7404,48.9894,311.1258,0,U,69452,999,180,.72052E-3,.1443E-2,0
STARLINK-37500,2026-127L,2026-06-19T16:47:13.171200,15.80938335,.0001609,53.1588,249.7208,55.6354,304.4820,0,U,69453,999,180,.74776E-3,.149928E-2,0
