STARLINK-37573          
1 69422U 26126C   26170.59084062  .00116267  00000+0  76873-3 0  9996
2 69422  97.2833  30.6772 0001357  97.1860 262.9560 15.75222280  3129
STARLINK-37820          
1 69423U 26126D   26170.69508903  .00178154  00000+0  94627-3 0  9993
2 69423  97.2820  30.8430 0001221 102.2175 257.9229 15.80002803  3147
STARLINK-37822          
1 69424U 26126E   26170.56823371  .00192654  00000+0  10197-2 0  9999
2 69424  97.2823  30.7097 0002849 122.1940 237.9604 15.80038857  3128
STARLINK-37836          
1 69425U 26126F   26170.56805472  .00289790  00000+0  15146-2 0  9999
2 69425  97.2822  30.7098 0000844 118.5259 241.6094 15.80065774  3127
STARLINK-37850          
1 69426U 26126G   26170.82122281  .00143929  00000+0  76879-3 0  9993
2 69426  97.2822  30.9780 0001243  77.4508 282.6899 15.79970100  3216
STARLINK-37823          
1 69427U 26126H   26170.56769257  .00211252  00000+0  11168-2 0  9999
2 69427  97.2822  30.7104 0001497 120.3231 239.8185 15.80019645  3129
STARLINK-37834          
1 69428U 26126J   26170.57319293  .00091541  00000+0  60680-3 0  9993
2 69428  97.2831  30.7029 0002178 115.5065 244.6426 15.75235776  3125
STARLINK-37857          
1 69429U 26126K   26170.56733415  .00199462  00000+0  10554-2 0  9994
2 69429  97.2823  30.7109 0000942 101.8615 258.2759 15.80031812  3123
STARLINK-37866          
1 69430U 26126L   26170.56732950  .00187530  00000+0  97647-3 0  9991
2 69430  97.2827  30.7101 0001674  89.0973 271.0487 15.80416095  3174
STARLINK-37555          
1 69431U 26126M   26170.69364567  .00166153  00000+0  88388-3 0  9991
2 69431  97.2821  30.8452 0001177 104.8899 255.2499 15.80001032  3190
STARLINK-37870          
1 69432U 26126N   26170.56679240  .00141039  00000+0  75265-3 0  9991
2 69432  97.2823  30.7120 0001413 117.2678 242.8734 15.79998585  3123
STARLINK-37872          
1 69433U 26126P   26170.56661099  .00179992  00000+0  95511-3 0  9990
2 69433  97.2824  30.7123 0002642 123.8485 236.3035 15.80017070  3127
STARLINK-37815          
1 69434U 26126Q   26170.58095934  .00185574  00000+0  12152-2 0  9994
2 69434  97.2831  30.6914 0001315 110.5631 249.5775 15.75247566  3121
STARLINK-37801          
1 69435U 26126R   26170.56701878 -.00026943  00000+0 -16229-3 0  9990
2 69435  97.2825  30.7119 0002973 185.9362 174.1870 15.77587389  3177
STARLINK-37800          
1 69436U 26126S   26170.75954419  .00167964  00000+0  11042-2 0  9997
2 69436  97.2829  30.9085 0000576  91.4808 268.6523 15.75206694  3156
STARLINK-37792          
1 69437U 26126T   26170.56589127  .00199395  00000+0  10552-2 0  9995
2 69437  97.2826  30.7129 0000858 120.5945 239.5407 15.80027299  3178
STARLINK-37783          
1 69438U 26126U   26170.56552840  .00168184  00000+0  89391-3 0  9998
2 69438  97.2824  30.7132 0002059 116.3495 243.7984 15.80013597  3172
STARLINK-37771          
1 69439U 26126V   26170.77577480  .00170745  00000+0  11201-2 0  9999
2 69439  97.2827  30.8848 0000829  80.5886 279.5473 15.75247610  3157
STARLINK-37747          
1 69440U 26126W   26170.69238264  .00085768  00000+0  46136-3 0  9992
2 69440  97.2824  30.8468 0001774  94.1623 265.9847 15.79977017  3142
STARLINK-37629          
1 69443U 26127A   26170.71741072 -.00771917  00000+0 -49777-2 0  9998
2 69443  53.1586 249.8431 0002189  25.8300 334.2830 15.77505760  1800
STARLINK-37509          
1 69444U 26127B   26170.52470787 -.00038006  00000+0 -19053-3 0  9990
2 69444  53.1584 250.7726 0001456 350.9906   9.1090 15.80795718  1777
STARLINK-37641          
1 69445U 26127C   26170.71289877  .00126367  00000+0  63284-3 0  9991
2 69445  53.1587 249.8122 0001342  61.0868 299.0289 15.80928039  1809
STARLINK-37522          
1 69446U 26127D   26170.71278794 -.00776457  00000+0 -50869-2 0  9995
2 69446  53.1586 249.8117 0001394  45.9923 314.1213 15.77172391  1807
STARLINK-37640          
1 69447U 26127E   26170.71012131  .00183464  00000+0  90984-3 0  9998
2 69447  53.1587 249.7937 0000934  75.5838 284.5288 15.80958744  1801
STARLINK-37572          
1 69448U 26127F   26170.70721377  .00182901  00000+0  90725-3 0  9995
2 69448  53.1585 249.7728 0001012  97.4392 262.6746 15.80955651  1804
STARLINK-37643          
1 69449U 26127G   26170.51811079 -.00549176  00000+0 -35631-2 0  9991
2 69449  53.1589 250.7251 0002430 123.6138 236.5115 15.76780270  1771
STARLINK-37601          
1 69450U 26127H   26170.51755870  .00633073  00000+0  35397-2 0  9996
2 69450  53.1583 250.7254 0016710   2.6152 357.4953 15.76924630  1771
STARLINK-37578          
1 69451U 26127J   26170.70357028  .00185562  00000+0  91986-3 0  9993
2 69451  53.1589 249.7490 0001037  51.5406 308.5710 15.80961718  1804
STARLINK-37577          
1 69452U 26127K   26170.70229356  .00144300  00000+0  72052-3 0  9994
2 69452  53.1594 249.7404 0001507  48.9894 311.1258 15.80931818  1804
STARLINK-37500          
1 69453U 26127L   26170.69945800  .00149928  00000+0  74776-3 0  9998
2 69453  53.1588 249.7208 0001609  55.6354 304.4820 15.80938335  1800
